STARLINK-31823          
1 59794U 24093N   26067.69377638  .00000298  00000+0  20373-4 0  9999
2 59794  42.9987 214.4702 0002017 273.8979  86.1642 15.27589278102543
FLOCK 4G-2              
1 62661U 25009BE  26068.66207492  .00013752  00000+0  51068-3 0  9995
2 62661  97.4044 151.2221 0003181 329.2677  30.8376 15.27675260121321
